{
    "links": {
        "self": "http://www.neowsapp.com/rest/v1/neo/3595928?api_key=iIulBulltgU6a56xZRHN4H3l9WmuAYTsLGpBGhQ2"
    },
    "id": "3595928",
    "neo_reference_id": "3595928",
    "name": "(2012 BY1)",
    "designation": "2012 BY1",
    "nasa_jpl_url": "http://ssd.jpl.nasa.gov/sbdb.cgi?sstr=3595928",
    "absolute_magnitude_h": 25.7,
    "estimated_diameter": {
        "kilometers": {
            "estimated_diameter_min": 0.0192555078,
            "estimated_diameter_max": 0.0430566244
        },
        "meters": {
            "estimated_diameter_min": 19.2555078188,
            "estimated_diameter_max": 43.0566244241
        },
        "miles": {
            "estimated_diameter_min": 0.0119648141,
            "estimated_diameter_max": 0.0267541378
        },
        "feet": {
            "estimated_diameter_min": 63.1742402722,
            "estimated_diameter_max": 141.2618956756
        }
    },
    "is_potentially_hazardous_asteroid": false,
    "close_approach_data": [
        {
            "close_approach_date": "1928-04-11",
            "close_approach_date_full": "1928-Apr-11 20:08",
            "epoch_date_close_approach": -1316663520000,
            "relative_velocity": {
                "kilometers_per_second": "19.4549201385",
                "kilometers_per_hour": "70037.7124985852",
                "miles_per_hour": "43518.7108578015"
            },
            "miss_distance": {
                "astronomical": "0.0348982623",
                "lunar": "13.5754240347",
                "kilometers": "5220705.706781301",
                "miles": "3243996.1000959138"
            },
            "orbiting_body": "Mars"
        },
        {
            "close_approach_date": "2012-01-24",
            "close_approach_date_full": "2012-Jan-24 08:48",
            "epoch_date_close_approach": 1327394880000,
            "relative_velocity": {
                "kilometers_per_second": "18.4457412406",
                "kilometers_per_hour": "66404.6684660938",
                "miles_per_hour": "41261.278581057"
            },
            "miss_distance": {
                "astronomical": "0.0052450613",
                "lunar": "2.0403288457",
                "kilometers": "784649.998499431",
                "miles": "487558.9006609078"
            },
            "orbiting_body": "Earth"
        },
        {
            "close_approach_date": "2012-01-24",
            "close_approach_date_full": "2012-Jan-24 13:31",
            "epoch_date_close_approach": 1327411860000,
            "relative_velocity": {
                "kilometers_per_second": "18.8150952264",
                "kilometers_per_hour": "67734.3428151282",
                "miles_per_hour": "42087.486511989"
            },
            "miss_distance": {
                "astronomical": "0.0060126764",
                "lunar": "2.3389311196",
                "kilometers": "899483.582439268",
                "miles": "558913.1809791784"
            },
            "orbiting_body": "Moon"
        },
        {
            "close_approach_date": "2070-09-15",
            "close_approach_date_full": "2070-Sep-15 12:06",
            "epoch_date_close_approach": 3178008360000,
            "relative_velocity": {
                "kilometers_per_second": "16.6158168264",
                "kilometers_per_hour": "59816.9405751322",
                "miles_per_hour": "37167.9206590314"
            },
            "miss_distance": {
                "astronomical": "0.1034573314",
                "lunar": "40.2449019146",
                "kilometers": "15476996.413324118",
                "miles": "9616959.6268961084"
            },
            "orbiting_body": "Venus"
        }
    ],
    "orbital_data": {
        "orbit_id": "8",
        "orbit_determination_date": "2017-04-06 08:51:25",
        "first_observation_date": "2012-01-18",
        "last_observation_date": "2012-01-24",
        "data_arc_in_days": 6,
        "observations_used": 43,
        "orbit_uncertainty": "8",
        "minimum_orbit_intersection": ".00265346",
        "jupiter_tisserand_invariant": "3.386",
        "epoch_osculation": "2455946.5",
        "eccentricity": ".6744609972340357",
        "semi_major_axis": "2.131917524759654",
        "inclination": ".4764757143418139",
        "ascending_node_longitude": "322.6264472343101",
        "orbital_period": "1136.983144046571",
        "perihelion_distance": ".6940223049895407",
        "perihelion_argument": "235.7528148349854",
        "aphelion_distance": "3.569812744529767",
        "perihelion_time": "2455994.401838189214",
        "mean_anomaly": "344.8329662243342",
        "mean_motion": ".3166273852739317",
        "equinox": "J2000",
        "orbit_class": {
            "orbit_class_type": "APO",
            "orbit_class_description": "Near-Earth asteroid orbits which cross the Earth’s orbit similar to that of 1862 Apollo",
            "orbit_class_range": "a (semi-major axis) > 1.0 AU; q (perihelion) < 1.017 AU"
        }
    },
    "is_sentry_object": false
}